{
  "norad_id": 59451,
  "name": "CENTAURI-6",
  "history": [
    {
      "epoch": "2026-03-28T21:44:18.636000Z",
      "apogee_km": 552.052813576428,
      "perigee_km": 550.664281258637,
      "latitude_deg": 2.2214070923219135e-06,
      "longitude_deg": 161.1746473519616,
      "height_km": 550.77266200857,
      "semi_major_axis_km": 6929.495547417532,
      "eccentricity": 0.00010019,
      "inclination_deg": 45.6066,
      "raan_deg": 313.5718,
      "arg_perigee_deg": 339.9281,
      "mean_anomaly_deg": 20.1563,
      "mean_motion_rev_day": 15.05047934
    },
    {
      "epoch": "2026-03-29T00:55:28.585920Z",
      "apogee_km": 552.0340746388529,
      "perigee_km": 550.6717369233756,
      "latitude_deg": -4.598594667231381e-05,
      "longitude_deg": 112.55989403343833,
      "height_km": 550.779474432266,
      "semi_major_axis_km": 6929.4899057811135,
      "eccentricity": 9.83e-05,
      "inclination_deg": 45.6065,
      "raan_deg": 312.8794,
      "arg_perigee_deg": 339.8878,
      "mean_anomaly_deg": 20.1966,
      "mean_motion_rev_day": 15.05049772
    }
  ]
}